{"type": "FeatureCollection", "features": [ {"type": "Feature", "properties": {"norad_id": 40701, "name": "GAOFEN-8", "group": "resource", "lat": 42.79932780422689, "lon": -1.9412278909319607, "alt_km": 438.7449267990787, "timestamp": "2025-12-18T10:51:25.446416+00:00", "meta": {"OBJECT_NAME": "GAOFEN-8", "OBJECT_ID": "2015-030A", "EPOCH": "2025-12-17T23:20:26.879712", "MEAN_MOTION": 15.38722544, "ECCENTRICITY": 0.00117649, "INCLINATION": 97.6896, "RA_OF_ASC_NODE": 170.3682, "ARG_OF_PERICENTER": 120.2148, "MEAN_ANOMALY": 240.0263, "EPHEMERIS_TYPE": 0, "CLASSIFICATION_TYPE": "U", "NORAD_CAT_ID": 40701, "ELEMENT_SET_NO": 999, "REV_AT_EPOCH": 58351, "BSTAR": 0.000394303, "MEAN_MOTION_DOT": 0.00015047, "MEAN_MOTION_DDOT": 0}, "tle": {"line1": "1 40701U 15030A   25351.97253333  .00015047  00000+0  39430-3 0  9990", "line2": "2 40701  97.6896 170.3682 0011764 120.2148 240.0263 15.38722544583513"}}, "geometry": {"type": "Point", "coordinates": [-1.9412278909319607, 42.79932780422689]}}, {"type": "Feature", "properties": {"norad_id": 40718, "name": "CARBONITE 1 (CBNT-1)", "group": "resource", "lat": 0.10222535195596354, "lon": 173.23036762163053, "alt_km": 633.4550132201139, "timestamp": "2025-12-18T10:51:25.446427+00:00", "meta": {"OBJECT_NAME": "CARBONITE 1 (CBNT-1)", "OBJECT_ID": "2015-032D", "EPOCH": "2025-12-17T23:31:10.034400", "MEAN_MOTION": 14.8276716, "ECCENTRICITY": 0.00147319, "INCLINATION": 97.6395, "RA_OF_ASC_NODE": 172.7927, "ARG_OF_PERICENTER": 164.3327, "MEAN_ANOMALY": 195.8346, "EPHEMERIS_TYPE": 0, "CLASSIFICATION_TYPE": "U", "NORAD_CAT_ID": 40718, "ELEMENT_SET_NO": 999, "REV_AT_EPOCH": 56248, "BSTAR": 0.00018139248, "MEAN_MOTION_DOT": 1.418e-05, "MEAN_MOTION_DDOT": 0}, "tle": {"line1": "1 40718U 15032D   25351.97997725  .00001418  00000+0  18139-3 0  9990", "line2": "2 40718  97.6395 172.7927 0014731 164.3327 195.8346 14.82767160562481"}}, "geometry": {"type": "Point", "coordinates": [173.23036762163053, 0.10222535195596354]}}, {"type": "Feature", "properties": {"norad_id": 40878, "name": "YAOGAN-27", "group": "resource", "lat": -54.59683436961946, "lon": 147.29033332177733, "alt_km": 1202.0944418196596, "timestamp": "2025-12-18T10:51:25.446437+00:00", "meta": {"OBJECT_NAME": "YAOGAN-27", "OBJECT_ID": "2015-040A", "EPOCH": "2025-12-17T22:42:52.981920", "MEAN_MOTION": 13.16062401, "ECCENTRICITY": 0.00075715, "INCLINATION": 100.1006, "RA_OF_ASC_NODE": 341.331, "ARG_OF_PERICENTER": 273.751, "MEAN_ANOMALY": 86.2738, "EPHEMERIS_TYPE": 0, "CLASSIFICATION_TYPE": "U", "NORAD_CAT_ID": 40878, "ELEMENT_SET_NO": 999, "REV_AT_EPOCH": 49382, "BSTAR": 0.0012975235, "MEAN_MOTION_DOT": 4.5e-06, "MEAN_MOTION_DDOT": 0}, "tle": {"line1": "1 40878U 15040A   25351.94644655  .00000450  00000+0  12975-2 0  9990", "line2": "2 40878 100.1006 341.3310 0007571 273.7510  86.2738 13.16062401493821"}}, "geometry": {"type": "Point", "coordinates": [147.29033332177733, -54.59683436961946]}}, {"type": "Feature", "properties": {"norad_id": 40894, "name": "GAOFEN-9 01", "group": "resource", "lat": -81.35791470189913, "lon": 93.38389371443715, "alt_km": 633.012981898095, "timestamp": "2025-12-18T10:51:25.446447+00:00", "meta": {"OBJECT_NAME": "GAOFEN-9 01", "OBJECT_ID": "2015-047A", "EPOCH": "2025-12-17T23:54:13.834944", "MEAN_MOTION": 14.82435138, "ECCENTRICITY": 0.00279799, "INCLINATION": 97.6537, "RA_OF_ASC_NODE": 30.7244, "ARG_OF_PERICENTER": 17.4764, "MEAN_ANOMALY": 342.7406, "EPHEMERIS_TYPE": 0, "CLASSIFICATION_TYPE": "U", "NORAD_CAT_ID": 40894, "ELEMENT_SET_NO": 999, "REV_AT_EPOCH": 55334, "BSTAR": 0.00012096639, "MEAN_MOTION_DOT": 9.25e-06, "MEAN_MOTION_DDOT": 0}, "tle": {"line1": "1 40894U 15047A   25351.99599346  .00000925  00000+0  12097-3 0  9999", "line2": "2 40894  97.6537  30.7244 0027979  17.4764 342.7406 14.82435138553342"}}, "geometry": {"type": "Point", "coordinates": [93.38389371443715, -81.35791470189913]}}, {"type": "Feature", "properties": {"norad_id": 41026, "name": "YAOGAN-28", "group": "resource", "lat": -27.505771972757433, "lon": -53.733678270962365, "alt_km": 499.8181517521398, "timestamp": "2025-12-18T10:51:25.446458+00:00", "meta": {"OBJECT_NAME": "YAOGAN-28", "OBJECT_ID": "2015-064A", "EPOCH": "2025-12-17T22:55:21.698400", "MEAN_MOTION": 15.24438051, "ECCENTRICITY": 0.00125684, "INCLINATION": 97.2805, "RA_OF_ASC_NODE": 129.6001, "ARG_OF_PERICENTER": 109.3769, "MEAN_ANOMALY": 250.8828, "EPHEMERIS_TYPE": 0, "CLASSIFICATION_TYPE": "U", "NORAD_CAT_ID": 41026, "ELEMENT_SET_NO": 999, "REV_AT_EPOCH": 56304, "BSTAR": 0.00026424454, "MEAN_MOTION_DOT": 6.429e-05, "MEAN_MOTION_DDOT": 0}, "tle": {"line1": "1 41026U 15064A   25351.95511225  .00006429  00000+0  26424-3 0  9996", "line2": "2 41026  97.2805 129.6001 0012568 109.3769 250.8828 15.24438051563046"}}, "geometry": {"type": "Point", "coordinates": [-53.733678270962365, -27.505771972757433]}}, {"type": "Feature", "properties": {"norad_id": 41038, "name": "YAOGAN-29", "group": "resource", "lat": 8.103680835006982, "lon": -163.20659613526414, "alt_km": 621.933204293864, "timestamp": "2025-12-18T10:51:25.446468+00:00", "meta": {"OBJECT_NAME": "YAOGAN-29", "OBJECT_ID": "2015-069A", "EPOCH": "2025-12-18T00:22:06.689280", "MEAN_MOTION": 14.82886752, "ECCENTRICITY": 3.121e-05, "INCLINATION": 98.0218, "RA_OF_ASC_NODE": 15.2044, "ARG_OF_PERICENTER": 198.0968, "MEAN_ANOMALY": 162.0234, "EPHEMERIS_TYPE": 0, "CLASSIFICATION_TYPE": "U", "NORAD_CAT_ID": 41038, "ELEMENT_SET_NO": 999, "REV_AT_EPOCH": 54377, "BSTAR": 1.595552e-05, "MEAN_MOTION_DOT": 7.5e-07, "MEAN_MOTION_DDOT": 0}, "tle": {"line1": "1 41038U 15069A   25352.01535520  .00000075  00000+0  15956-4 0  9996", "line2": "2 41038  98.0218  15.2044 0000312 198.0968 162.0234 14.82886752543774"}}, "geometry": {"type": "Point", "coordinates": [-163.20659613526414, 8.103680835006982]}}, {"type": "Feature", "properties": {"norad_id": 41167, "name": "KENT RIDGE 1", "group": "resource", "lat": -11.541907106396994, "lon": 38.56168669964858, "alt_km": 493.85348093261746, "timestamp": "2025-12-18T10:51:25.446479+00:00", "meta": {"OBJECT_NAME": "KENT RIDGE 1", "OBJECT_ID": "2015-077B", "EPOCH": "2025-12-17T16:32:38.321952", "MEAN_MOTION": 15.21675288, "ECCENTRICITY": 0.00085051, "INCLINATION": 14.978, "RA_OF_ASC_NODE": 174.4127, "ARG_OF_PERICENTER": 200.8966, "MEAN_ANOMALY": 159.1009, "EPHEMERIS_TYPE": 0, "CLASSIFICATION_TYPE": "U", "NORAD_CAT_ID": 41167, "ELEMENT_SET_NO": 999, "REV_AT_EPOCH": 55339, "BSTAR": 0.00014150911, "MEAN_MOTION_DOT": 4.052e-05, "MEAN_MOTION_DDOT": 0}, "tle": {"line1": "1 41167U 15077B   25351.68933243  .00004052  00000+0  14151-3 0  9998", "line2": "2 41167  14.9780 174.4127 0008505 200.8966 159.1009 15.21675288553390"}}, "geometry": {"type": "Point", "coordinates": [38.56168669964858, -11.541907106396994]}}, {"type": "Feature", "properties": {"norad_id": 41194, "name": "GAOFEN-4", "group": "resource", "lat": -0.17779513138898956, "lon": -4.134384400251247, "alt_km": 35797.80263675321, "timestamp": "2025-12-18T10:51:25.446493+00:00", "meta": {"OBJECT_NAME": "GAOFEN-4", "OBJECT_ID": "2015-083A", "EPOCH": "2025-12-17T20:40:38.319168", "MEAN_MOTION": 1.00274046, "ECCENTRICITY": 0.00029204, "INCLINATION": 0.1833, "RA_OF_ASC_NODE": 81.7246, "ARG_OF_PERICENTER": 94.2919, "MEAN_ANOMALY": 326.577, "EPHEMERIS_TYPE": 0, "CLASSIFICATION_TYPE": "U", "NORAD_CAT_ID": 41194, "ELEMENT_SET_NO": 999, "REV_AT_EPOCH": 3671, "BSTAR": 0, "MEAN_MOTION_DOT": -3.1e-06, "MEAN_MOTION_DDOT": 0}, "tle": {"line1": "1 41194U 15083A   25351.86155462 -.00000310  00000+0  00000+0 0  9992", "line2": "2 41194   0.1833  81.7246 0002920  94.2919 326.5770  1.00274046 36712"}}, "geometry": {"type": "Point", "coordinates": [-4.134384400251247, -0.17779513138898956]}}, {"type": "Feature", "properties": {"norad_id": 41240, "name": "JASON-3", "group": "resource", "lat": 27.57911649488937, "lon": -47.61552794064316, "alt_km": 1311.673146242546, "timestamp": "2025-12-18T10:51:25.446504+00:00", "meta": {"OBJECT_NAME": "JASON-3", "OBJECT_ID": "2016-002A", "EPOCH": "2025-12-17T21:02:03.430176", "MEAN_MOTION": 12.87626784, "ECCENTRICITY": 0.0007187, "INCLINATION": 66.0396, "RA_OF_ASC_NODE": 147.0247, "ARG_OF_PERICENTER": 271.1239, "MEAN_ANOMALY": 88.8956, "EPHEMERIS_TYPE": 0, "CLASSIFICATION_TYPE": "U", "NORAD_CAT_ID": 41240, "ELEMENT_SET_NO": 999, "REV_AT_EPOCH": 46390, "BSTAR": 5.531279e-05, "MEAN_MOTION_DOT": -4.8e-07, "MEAN_MOTION_DDOT": 0}, "tle": {"line1": "1 41240U 16002A   25351.87642859 -.00000048  00000+0  55313-4 0  9998", "line2": "2 41240  66.0396 147.0247 0007187 271.1239  88.8956 12.87626784463903"}}, "geometry": {"type": "Point", "coordinates": [-47.61552794064316, 27.57911649488937]}}, {"type": "Feature", "properties": {"norad_id": 41335, "name": "SENTINEL-3A", "group": "resource", "lat": 21.66394833803177, "lon": -119.15624569755308, "alt_km": 802.1651692680398, "timestamp": "2025-12-18T10:51:25.446515+00:00", "meta": {"OBJECT_NAME": "SENTINEL-3A", "OBJECT_ID": "2016-011A", "EPOCH": "2025-12-17T20:39:15.050304", "MEAN_MOTION": 14.26732667, "ECCENTRICITY": 9.155e-05, "INCLINATION": 98.6309, "RA_OF_ASC_NODE": 56.8014, "ARG_OF_PERICENTER": 92.4796, "MEAN_ANOMALY": 267.6489, "EPHEMERIS_TYPE": 0, "CLASSIFICATION_TYPE": "U", "NORAD_CAT_ID": 41335, "ELEMENT_SET_NO": 999, "REV_AT_EPOCH": 51220, "BSTAR": 6.4791183e-05, "MEAN_MOTION_DOT": 1.13e-06, "MEAN_MOTION_DDOT": 0}, "tle": {"line1": "1 41335U 16011A   25351.86059086  .00000113  00000+0  64791-4 0  9998", "line2": "2 41335  98.6309  56.8014 0000915  92.4796 267.6489 14.26732667512205"}}, "geometry": {"type": "Point", "coordinates": [-119.15624569755308, 21.66394833803177]}}]}